IRIDIUM 155             
1 43573U 18061E   21298.24772112  .00000118  00000-0  34953-4 0  9994
2 43573  86.4001  45.4407 0002467 103.1378 257.0093 14.34218260170273
IRIDIUM 154             
1 43574U 18061F   21298.22868998  .00000113  00000-0  33233-4 0  9996
2 43574  86.4004  45.5011 0001858  93.7870 266.3538 14.34216633170328
IRIDIUM 163             
1 43575U 18061G   21298.27943750  .00000118  00000-0  35165-4 0  9993
2 43575  86.4002  45.4471 0002282  83.2205 276.9250 14.34217810170308
IRIDIUM 156             
1 43576U 18061H   21298.25407797  .00000112  00000-0  33107-4 0  9996
2 43576  86.4002  45.4629 0002448  92.5786 267.5690 14.34216912170299
IRIDIUM 164             
1 43577U 18061J   21298.23503048  .00000121  00000-0  36205-4 0  9993
2 43577  86.4003  45.4853 0001949  90.6687 269.4732 14.34217866170336
IRIDIUM 159             
1 43578U 18061K   21298.27309396  .00000116  00000-0  34192-4 0  9995
2 43578  86.4001  45.4419 0001944  93.4985 266.6433 14.34217373170307
IRIDIUM 180             
1 43922U 19002A   21298.20281673  .00000093  00000-0  26212-4 0  9992
2 43922  86.3982 342.3670 0001590  72.1384 287.9985 14.34217479145902
IRIDIUM 176             
1 43923U 19002B   21298.16082456  .00000219  00000-0  30786-4 0  9997
2 43923  86.6116 342.4194 0002289  94.9213 265.2265 14.72246870149718
IRIDIUM 168             
1 43924U 19002C   21298.19647790  .00000097  00000-0  27502-4 0  9995
2 43924  86.3984 342.3990 0001920  91.8978 268.2437 14.34216263145886
IRIDIUM 173             
1 43925U 19002D   21298.18379246  .00000097  00000-0  27729-4 0  9994
2 43925  86.3981 342.3623 0002022  90.3075 269.8352 14.34216236145864
IRIDIUM 169             
1 43926U 19002E   21298.27387632  .00000132  00000-0  36671-4 0  9999
2 43926  86.4278  13.9053 0006022 145.6457 214.5132 14.38613699146407
IRIDIUM 172             
1 43927U 19002F   21298.17745252  .00000097  00000-0  27554-4 0  9995
2 43927  86.3982 342.3677 0001949  88.9565 271.1854 14.34218019145875
IRIDIUM 175             
1 43928U 19002G   21298.15462242  .00000216  00000-0  30425-4 0  9993
2 43928  86.6117 342.2455 0002315  82.4136 277.7344 14.72247754149705
IRIDIUM 171             
1 43929U 19002H   21298.15840826  .00000092  00000-0  25788-4 0  9990
2 43929  86.3991 342.4936 0001930  92.4084 267.7333 14.34220549145865
IRIDIUM 170             
1 43930U 19002J   21298.16700378  .00000218  00000-0  30608-4 0  9997
2 43930  86.6116 342.4228 0002160  90.7293 269.4172 14.72248208149725
IRIDIUM 167             
1 43931U 19002K   21298.22184343  .00000096  00000-0  27264-4 0  9991
2 43931  86.3982 342.3566 0001645  80.4622 279.6759 14.34218786145879
